ALICE                   
1 39467U 13072F   26068.66905005  .00012311  00000+0  62398-3 0  9993
2 39467 120.4625 282.3278 0159202 246.5562 111.8695 15.07155655100262
STARLINK-31974          
1 59885U 24100A   26068.21066101  .00000158  00000+0  15241-4 0  9991
2 59885  42.9979 128.0999 0000752 191.7836 168.2999 15.27569115100988
